{
    "links": {
        "self": "http://www.neowsapp.com/rest/v1/neo/3836047?api_key=iIulBulltgU6a56xZRHN4H3l9WmuAYTsLGpBGhQ2"
    },
    "id": "3836047",
    "neo_reference_id": "3836047",
    "name": "(2018 VY1)",
    "designation": "2018 VY1",
    "nasa_jpl_url": "http://ssd.jpl.nasa.gov/sbdb.cgi?sstr=3836047",
    "absolute_magnitude_h": 24.7,
    "estimated_diameter": {
        "kilometers": {
            "estimated_diameter_min": 0.0305179233,
            "estimated_diameter_max": 0.0682401509
        },
        "meters": {
            "estimated_diameter_min": 30.5179232594,
            "estimated_diameter_max": 68.2401509401
        },
        "miles": {
            "estimated_diameter_min": 0.0189629525,
            "estimated_diameter_max": 0.0424024508
        },
        "feet": {
            "estimated_diameter_min": 100.1244233463,
            "estimated_diameter_max": 223.8850168104
        }
    },
    "is_potentially_hazardous_asteroid": false,
    "close_approach_data": [
        {
            "close_approach_date": "2018-11-07",
            "close_approach_date_full": "2018-Nov-07 14:05",
            "epoch_date_close_approach": 1541599500000,
            "relative_velocity": {
                "kilometers_per_second": "17.0530916105",
                "kilometers_per_hour": "61391.1297976488",
                "miles_per_hour": "38146.0606234335"
            },
            "miss_distance": {
                "astronomical": "0.0888220831",
                "lunar": "34.5517903259",
                "kilometers": "13287594.440722997",
                "miles": "8256528.3251594786"
            },
            "orbiting_body": "Earth"
        }
    ],
    "orbital_data": {
        "orbit_id": "4",
        "orbit_determination_date": "2018-11-12 07:21:13",
        "first_observation_date": "2018-11-04",
        "last_observation_date": "2018-11-12",
        "data_arc_in_days": 8,
        "observations_used": 42,
        "orbit_uncertainty": "8",
        "minimum_orbit_intersection": ".0884008",
        "jupiter_tisserand_invariant": "3.098",
        "epoch_osculation": "2458427.5",
        "eccentricity": ".5680317894141733",
        "semi_major_axis": "2.484587864291398",
        "inclination": "28.02471947751881",
        "ascending_node_longitude": "46.7510013899123",
        "orbital_period": "1430.473992561933",
        "perihelion_distance": "1.073262973781216",
        "perihelion_argument": "349.2233621510611",
        "aphelion_distance": "3.89591275480158",
        "perihelion_time": "2458421.738375141087",
        "mean_anomaly": "1.449998364174298",
        "mean_motion": ".2516648340842965",
        "equinox": "J2000",
        "orbit_class": {
            "orbit_class_type": "AMO",
            "orbit_class_description": "Near-Earth asteroid orbits similar to that of 1221 Amor",
            "orbit_class_range": "1.017 AU < q (perihelion) < 1.3 AU"
        }
    },
    "is_sentry_object": false
}